{"type": "FeatureCollection", "features": [ {"type": "Feature", "properties": {"norad_id": 36206, "name": "FENGYUN 1C DEB", "group": "fengyun-1c-debris", "lat": -24.043297851229752, "lon": 179.98431761892024, "alt_km": 847.4527659977575, "timestamp": "2025-12-06T09:34:17.201747+00:00", "meta": {"OBJECT_NAME": "FENGYUN 1C DEB", "OBJECT_ID": "1999-025DUF", "EPOCH": "2025-11-26T07:02:56.668416", "MEAN_MOTION": 14.21517518, "ECCENTRICITY": 0.00312218, "INCLINATION": 98.4807, "RA_OF_ASC_NODE": 354.0922, "ARG_OF_PERICENTER": 66.8272, "MEAN_ANOMALY": 293.619, "EPHEMERIS_TYPE": 0, "CLASSIFICATION_TYPE": "U", "NORAD_CAT_ID": 36206, "ELEMENT_SET_NO": 999, "REV_AT_EPOCH": 64187, "BSTAR": 0.00073137291, "MEAN_MOTION_DOT": 1.568e-05, "MEAN_MOTION_DDOT": 0}, "tle": {"line1": "1 36206U 99025DUF 25330.29371144  .00001568  00000+0  73137-3 0  9999", "line2": "2 36206  98.4807 354.0922 0031221  66.8272 293.6190 14.21517518641871"}}, "geometry": {"type": "Point", "coordinates": [179.98431761892024, -24.043297851229752]}}, {"type": "Feature", "properties": {"norad_id": 36211, "name": "FENGYUN 1C DEB", "group": "fengyun-1c-debris", "lat": -62.17679885317199, "lon": 137.2717944188824, "alt_km": 621.5855044949112, "timestamp": "2025-12-06T09:34:17.201757+00:00", "meta": {"OBJECT_NAME": "FENGYUN 1C DEB", "OBJECT_ID": "1999-025DUL", "EPOCH": "2025-12-05T17:15:46.002816", "MEAN_MOTION": 14.25954721, "ECCENTRICITY": 0.02662967, "INCLINATION": 98.503, "RA_OF_ASC_NODE": 333.0786, "ARG_OF_PERICENTER": 249.5072, "MEAN_ANOMALY": 107.7342, "EPHEMERIS_TYPE": 0, "CLASSIFICATION_TYPE": "U", "NORAD_CAT_ID": 36211, "ELEMENT_SET_NO": 999, "REV_AT_EPOCH": 94269, "BSTAR": 0.0010127648, "MEAN_MOTION_DOT": 3.457e-05, "MEAN_MOTION_DDOT": 0}, "tle": {"line1": "1 36211U 99025DUL 25339.71928244  .00003457  00000+0  10128-2 0  9999", "line2": "2 36211  98.5030 333.0786 0266296 249.5072 107.7342 14.25954721942694"}}, "geometry": {"type": "Point", "coordinates": [137.2717944188824, -62.17679885317199]}}, {"type": "Feature", "properties": {"norad_id": 36216, "name": "FENGYUN 1C DEB", "group": "fengyun-1c-debris", "lat": 56.06115892917789, "lon": -12.219807453395054, "alt_km": 793.3033597835065, "timestamp": "2025-12-06T09:34:17.201767+00:00", "meta": {"OBJECT_NAME": "FENGYUN 1C DEB", "OBJECT_ID": "1999-025DUR", "EPOCH": "2025-12-03T18:41:03.384096", "MEAN_MOTION": 14.18834784, "ECCENTRICITY": 0.00454101, "INCLINATION": 98.6096, "RA_OF_ASC_NODE": 358.2465, "ARG_OF_PERICENTER": 43.693, "MEAN_ANOMALY": 316.7826, "EPHEMERIS_TYPE": 0, "CLASSIFICATION_TYPE": "U", "NORAD_CAT_ID": 36216, "ELEMENT_SET_NO": 999, "REV_AT_EPOCH": 64245, "BSTAR": 0.00043256372, "MEAN_MOTION_DOT": 8.67e-06, "MEAN_MOTION_DDOT": 0}, "tle": {"line1": "1 36216U 99025DUR 25337.77851139  .00000867  00000+0  43256-3 0  9997", "line2": "2 36216  98.6096 358.2465 0045410  43.6930 316.7826 14.18834784642452"}}, "geometry": {"type": "Point", "coordinates": [-12.219807453395054, 56.06115892917789]}}, {"type": "Feature", "properties": {"norad_id": 36218, "name": "FENGYUN 1C DEB", "group": "fengyun-1c-debris", "lat": -31.24076023078501, "lon": -4.880475273648259, "alt_km": 676.248369908214, "timestamp": "2025-12-06T09:34:17.201777+00:00", "meta": {"OBJECT_NAME": "FENGYUN 1C DEB", "OBJECT_ID": "1999-025DUT", "EPOCH": "2025-12-05T19:32:41.381376", "MEAN_MOTION": 14.70838504, "ECCENTRICITY": 0.007329, "INCLINATION": 99.0768, "RA_OF_ASC_NODE": 180.034, "ARG_OF_PERICENTER": 317.1229, "MEAN_ANOMALY": 42.4274, "EPHEMERIS_TYPE": 0, "CLASSIFICATION_TYPE": "U", "NORAD_CAT_ID": 36218, "ELEMENT_SET_NO": 999, "REV_AT_EPOCH": 59041, "BSTAR": 0.0020465655, "MEAN_MOTION_DOT": 0.00013, "MEAN_MOTION_DDOT": 0}, "tle": {"line1": "1 36218U 99025DUT 25339.81436784  .00013000  00000+0  20466-2 0  9991", "line2": "2 36218  99.0768 180.0340 0073290 317.1229  42.4274 14.70838504590415"}}, "geometry": {"type": "Point", "coordinates": [-4.880475273648259, -31.24076023078501]}}, {"type": "Feature", "properties": {"norad_id": 36224, "name": "FENGYUN 1C DEB", "group": "fengyun-1c-debris", "lat": 70.78529690228805, "lon": 1.5319205980724406, "alt_km": 804.3855024828836, "timestamp": "2025-12-06T09:34:17.201787+00:00", "meta": {"OBJECT_NAME": "FENGYUN 1C DEB", "OBJECT_ID": "1999-025DUZ", "EPOCH": "2025-12-05T21:20:10.902912", "MEAN_MOTION": 14.12757556, "ECCENTRICITY": 0.01149324, "INCLINATION": 98.7811, "RA_OF_ASC_NODE": 27.359, "ARG_OF_PERICENTER": 11.4898, "MEAN_ANOMALY": 348.8857, "EPHEMERIS_TYPE": 0, "CLASSIFICATION_TYPE": "U", "NORAD_CAT_ID": 36224, "ELEMENT_SET_NO": 999, "REV_AT_EPOCH": 64335, "BSTAR": 0.00019098451, "MEAN_MOTION_DOT": 3.34e-06, "MEAN_MOTION_DDOT": 0}, "tle": {"line1": "1 36224U 99025DUZ 25339.88901508  .00000334  00000+0  19098-3 0  9992", "line2": "2 36224  98.7811  27.3590 0114932  11.4898 348.8857 14.12757556643357"}}, "geometry": {"type": "Point", "coordinates": [1.5319205980724406, 70.78529690228805]}}, {"type": "Feature", "properties": {"norad_id": 36225, "name": "FENGYUN 1C DEB", "group": "fengyun-1c-debris", "lat": -52.25924926058667, "lon": -90.67273005592739, "alt_km": 550.7138067750766, "timestamp": "2025-12-06T09:34:17.201797+00:00", "meta": {"OBJECT_NAME": "FENGYUN 1C DEB", "OBJECT_ID": "1999-025DVA", "EPOCH": "2025-12-05T07:00:38.521728", "MEAN_MOTION": 15.05269466, "ECCENTRICITY": 0.00445041, "INCLINATION": 98.8187, "RA_OF_ASC_NODE": 99.6345, "ARG_OF_PERICENTER": 314.8469, "MEAN_ANOMALY": 44.9141, "EPHEMERIS_TYPE": 0, "CLASSIFICATION_TYPE": "U", "NORAD_CAT_ID": 36225, "ELEMENT_SET_NO": 999, "REV_AT_EPOCH": 66660, "BSTAR": 0.0045250921, "MEAN_MOTION_DOT": 0.00066606, "MEAN_MOTION_DDOT": 0}, "tle": {"line1": "1 36225U 99025DVA 25339.29211252  .00066606  00000+0  45251-2 0  9991", "line2": "2 36225  98.8187  99.6345 0044504 314.8469  44.9141 15.05269466666600"}}, "geometry": {"type": "Point", "coordinates": [-90.67273005592739, -52.25924926058667]}}, {"type": "Feature", "properties": {"norad_id": 36226, "name": "FENGYUN 1C DEB", "group": "fengyun-1c-debris", "lat": -76.02593969419972, "lon": 60.675690964747595, "alt_km": 897.6788032969898, "timestamp": "2025-12-06T09:34:17.201807+00:00", "meta": {"OBJECT_NAME": "FENGYUN 1C DEB", "OBJECT_ID": "1999-025DVB", "EPOCH": "2025-12-05T08:24:08.459424", "MEAN_MOTION": 14.10238341, "ECCENTRICITY": 0.00958599, "INCLINATION": 98.6088, "RA_OF_ASC_NODE": 22.1717, "ARG_OF_PERICENTER": 41.8631, "MEAN_ANOMALY": 318.982, "EPHEMERIS_TYPE": 0, "CLASSIFICATION_TYPE": "U", "NORAD_CAT_ID": 36226, "ELEMENT_SET_NO": 999, "REV_AT_EPOCH": 63658, "BSTAR": 0.0024391454, "MEAN_MOTION_DOT": 4.471e-05, "MEAN_MOTION_DDOT": 0}, "tle": {"line1": "1 36226U 99025DVB 25339.35009791  .00004471  00000+0  24391-2 0  9996", "line2": "2 36226  98.6088  22.1717 0095859  41.8631 318.9820 14.10238341636585"}}, "geometry": {"type": "Point", "coordinates": [60.675690964747595, -76.02593969419972]}}, {"type": "Feature", "properties": {"norad_id": 36229, "name": "FENGYUN 1C DEB", "group": "fengyun-1c-debris", "lat": 60.03352627668593, "lon": 38.42511669926147, "alt_km": 793.985096946366, "timestamp": "2025-12-06T09:34:17.201818+00:00", "meta": {"OBJECT_NAME": "FENGYUN 1C DEB", "OBJECT_ID": "1999-025DVE", "EPOCH": "2025-12-05T21:04:07.632768", "MEAN_MOTION": 14.07137421, "ECCENTRICITY": 0.01024368, "INCLINATION": 100.9232, "RA_OF_ASC_NODE": 198.2286, "ARG_OF_PERICENTER": 140.7618, "MEAN_ANOMALY": 220.1026, "EPHEMERIS_TYPE": 0, "CLASSIFICATION_TYPE": "U", "NORAD_CAT_ID": 36229, "ELEMENT_SET_NO": 999, "REV_AT_EPOCH": 63159, "BSTAR": 0.0026485484, "MEAN_MOTION_DOT": 4.593e-05, "MEAN_MOTION_DDOT": 0}, "tle": {"line1": "1 36229U 99025DVE 25339.87786612  .00004593  00000+0  26485-2 0  9991", "line2": "2 36229 100.9232 198.2286 0102436 140.7618 220.1026 14.07137421631597"}}, "geometry": {"type": "Point", "coordinates": [38.42511669926147, 60.03352627668593]}}, {"type": "Feature", "properties": {"norad_id": 36230, "name": "FENGYUN 1C DEB", "group": "fengyun-1c-debris", "lat": -10.508298608814062, "lon": 57.3014352216197, "alt_km": 1142.464390086222, "timestamp": "2025-12-06T09:34:17.201828+00:00", "meta": {"OBJECT_NAME": "FENGYUN 1C DEB", "OBJECT_ID": "1999-025DVF", "EPOCH": "2025-12-01T10:53:13.084224", "MEAN_MOTION": 13.75193497, "ECCENTRICITY": 0.02182616, "INCLINATION": 99.5257, "RA_OF_ASC_NODE": 50.5767, "ARG_OF_PERICENTER": 171.2335, "MEAN_ANOMALY": 189.2724, "EPHEMERIS_TYPE": 0, "CLASSIFICATION_TYPE": "U", "NORAD_CAT_ID": 36230, "ELEMENT_SET_NO": 999, "REV_AT_EPOCH": 61731, "BSTAR": 0.0022005072, "MEAN_MOTION_DOT": 2.463e-05, "MEAN_MOTION_DDOT": 0}, "tle": {"line1": "1 36230U 99025DVF 25335.45362366  .00002463  00000+0  22005-2 0  9997", "line2": "2 36230  99.5257  50.5767 0218261 171.2335 189.2724 13.75193497617315"}}, "geometry": {"type": "Point", "coordinates": [57.3014352216197, -10.508298608814062]}}, {"type": "Feature", "properties": {"norad_id": 36231, "name": "FENGYUN 1C DEB", "group": "fengyun-1c-debris", "lat": 47.218452626102945, "lon": 145.0379845381191, "alt_km": 882.1118568075126, "timestamp": "2025-12-06T09:34:17.201838+00:00", "meta": {"OBJECT_NAME": "FENGYUN 1C DEB", "OBJECT_ID": "1999-025DVG", "EPOCH": "2025-12-05T15:56:36.863520", "MEAN_MOTION": 14.12000961, "ECCENTRICITY": 0.0060915, "INCLINATION": 98.6876, "RA_OF_ASC_NODE": 314.8164, "ARG_OF_PERICENTER": 353.731, "MEAN_ANOMALY": 6.3094, "EPHEMERIS_TYPE": 0, "CLASSIFICATION_TYPE": "U", "NORAD_CAT_ID": 36231, "ELEMENT_SET_NO": 999, "REV_AT_EPOCH": 85443, "BSTAR": 0.00026309485, "MEAN_MOTION_DOT": 4.47e-06, "MEAN_MOTION_DDOT": 0}, "tle": {"line1": "1 36231U 99025DVG 25339.66431555  .00000447  00000+0  26309-3 0  9994", "line2": "2 36231  98.6876 314.8164 0060915 353.7310   6.3094 14.12000961854431"}}, "geometry": {"type": "Point", "coordinates": [145.0379845381191, 47.218452626102945]}}]}